OSCAR 7 (AO-7)          
1 07530U 74089B   26066.00068916 -.00000050  00000+0 -22106-4 0  9994
2 07530 101.9969  78.1615 0011987 327.3158  89.2077 12.53696327347714
PHASE 3B (AO-10)        
1 14129U 83058B   26061.53393855 -.00000164  00000+0  00000+0 0  9997
2 14129  25.9320 237.4860 6049007  86.0782 336.7646  2.05874052293290
UOSAT 2 (UO-11)         
1 14781U 84021B   26066.18971615  .00002337  00000+0  24496-3 0  9996
2 14781  97.7950  32.9918 0008222 150.7840 209.3839 14.90495218241937
LUSAT (LO-19)           
1 20442U 90005G   26066.03949195  .00000176  00000+0  79447-4 0  9994
2 20442  98.8936  84.9912 0012234 141.7272 218.4782 14.34086612887758
EYESAT A (AO-27)        
1 22825U 93061C   26066.18971896  .00000134  00000+0  68154-4 0  9992
2 22825  98.6986 133.5978 0009068  45.7344 314.4581 14.30912001692412
ITAMSAT (IO-26)         
1 22826U 93061D   26066.12951425  .00000151  00000+0  73924-4 0  9993
2 22826  98.6935 133.4450 0009335  30.2249 329.9471 14.31335939692713
RADIO ROSTO (RS15)      
1 23439U 94085A   26066.12354644 -.00000032  00000+0  28355-3 0  9997
2 23439  64.8142 108.2839 0152569  22.5115 338.2411 11.27583928284397
JAS-2 (FO-29)           
1 24278U 96046B   26066.13302071 -.00000020  00000+0  15966-4 0  9998
2 24278  98.5383 288.8984 0349931   1.4004 358.8036 13.53268552459366
TECHSAT 1B (GO-32)      
1 25397U 98043D   26065.93031390  .00000103  00000+0  64601-4 0  9991
2 25397  99.0026  56.1354 0001986 123.9868 236.1498 14.24405146436770
ISS (ZARYA)             
1 25544U 98067A   26065.86737742  .00008564  00000+0  16627-3 0  9990
2 25544  51.6318  86.3097 0008109 164.5613 195.5624 15.48482048555891
PCSAT (NO-44)           
1 26931U 01043C   26066.18354100  .00000212  00000+0  10989-3 0  9995
2 26931  67.0508 148.0942 0007005 265.2738  94.7564 14.31910626275846
SAUDISAT 1C (SO-50)     
1 27607U 02058C   26066.18941992  .00002074  00000+0  26196-3 0  9999
2 27607  64.5520  84.5051 0075199 281.1523  78.1135 14.82770448249333
CUTE-1 (CO-55)          
1 27844U 03031E   26065.96450898  .00000418  00000+0  20017-3 0  9995
2 27844  98.6780  75.7971 0010585 119.5034 240.7202 14.24263294177125
CUBESAT XI-IV (CO-57)   
1 27848U 03031J   26065.97229987  .00000340  00000+0  16835-3 0  9990
2 27848  98.6809  75.5995 0010270 135.9414 224.2584 14.23558791176835
MOZHAETS 4 (RS22)       
1 27939U 03042A   26066.21805517  .00001569  00000+0  25104-3 0  9993
2 27939  98.3432 247.7103 0010383 228.6467 246.6480 14.73244933200535
CUBESAT XI-V            
1 28895U 05043F   26065.38576487  .00002828  00000+0  45496-3 0  9991
2 28895  98.2825 218.9473 0014555 167.7954 192.3608 14.72302296 86628
