[{"OBJECT_NAME":"OSCAR 7 (AO-7)","OBJECT_ID":"1974-089B","EPOCH":"2026-03-07T00:00:59.543424","MEAN_MOTION":12.53696327,"ECCENTRICITY":0.0011987,"INCLINATION":101.9969,"RA_OF_ASC_NODE":78.1615,"ARG_OF_PERICENTER":327.3158,"MEAN_ANOMALY":89.2077,"EPHEMERIS_TYPE":0,"CLASSIFICATION_TYPE":"U","NORAD_CAT_ID":7530,"ELEMENT_SET_NO":999,"REV_AT_EPOCH":34771,"BSTAR":-2.2106e-5,"MEAN_MOTION_DOT":-5.0e-7,"MEAN_MOTION_DDOT":0},{"OBJECT_NAME":"PHASE 3B (AO-10)","OBJECT_ID":"1983-058B","EPOCH":"2026-03-02T12:48:52.290720","MEAN_MOTION":2.05874052,"ECCENTRICITY":0.6049007,"INCLINATION":25.932,"RA_OF_ASC_NODE":237.486,"ARG_OF_PERICENTER":86.0782,"MEAN_ANOMALY":336.7646,"EPHEMERIS_TYPE":0,"CLASSIFICATION_TYPE":"U","NORAD_CAT_ID":14129,"ELEMENT_SET_NO":999,"REV_AT_EPOCH":29329,"BSTAR":0,"MEAN_MOTION_DOT":-1.64e-6,"MEAN_MOTION_DDOT":0},{"OBJECT_NAME":"UOSAT 2 (UO-11)","OBJECT_ID":"1984-021B","EPOCH":"2026-03-07T04:33:11.475360","MEAN_MOTION":14.90495218,"ECCENTRICITY":0.0008222,"INCLINATION":97.795,"RA_OF_ASC_NODE":32.9918,"ARG_OF_PERICENTER":150.784,"MEAN_ANOMALY":209.3839,"EPHEMERIS_TYPE":0,"CLASSIFICATION_TYPE":"U","NORAD_CAT_ID":14781,"ELEMENT_SET_NO":999,"REV_AT_EPOCH":24193,"BSTAR":0.00024496,"MEAN_MOTION_DOT":2.337e-5,"MEAN_MOTION_DDOT":0},{"OBJECT_NAME":"LUSAT (LO-19)","OBJECT_ID":"1990-005G","EPOCH":"2026-03-07T00:56:52.104480","MEAN_MOTION":14.34086612,"ECCENTRICITY":0.0012234,"INCLINATION":98.8936,"RA_OF_ASC_NODE":84.9912,"ARG_OF_PERICENTER":141.7272,"MEAN_ANOMALY":218.4782,"EPHEMERIS_TYPE":0,"CLASSIFICATION_TYPE":"U","NORAD_CAT_ID":20442,"ELEMENT_SET_NO":999,"REV_AT_EPOCH":88775,"BSTAR":7.9447e-5,"MEAN_MOTION_DOT":1.76e-6,"MEAN_MOTION_DDOT":0},{"OBJECT_NAME":"EYESAT A (AO-27)","OBJECT_ID":"1993-061C","EPOCH":"2026-03-07T04:33:11.718144","MEAN_MOTION":14.30912001,"ECCENTRICITY":0.0009068,"INCLINATION":98.6986,"RA_OF_ASC_NODE":133.5978,"ARG_OF_PERICENTER":45.7344,"MEAN_ANOMALY":314.4581,"EPHEMERIS_TYPE":0,"CLASSIFICATION_TYPE":"U","NORAD_CAT_ID":22825,"ELEMENT_SET_NO":999,"REV_AT_EPOCH":69241,"BSTAR":6.8154e-5,"MEAN_MOTION_DOT":1.34e-6,"MEAN_MOTION_DDOT":0},{"OBJECT_NAME":"ITAMSAT (IO-26)","OBJECT_ID":"1993-061D","EPOCH":"2026-03-07T03:06:30.031200","MEAN_MOTION":14.31335939,"ECCENTRICITY":0.0009335,"INCLINATION":98.6935,"RA_OF_ASC_NODE":133.445,"ARG_OF_PERICENTER":30.2249,"MEAN_ANOMALY":329.9471,"EPHEMERIS_TYPE":0,"CLASSIFICATION_TYPE":"U","NORAD_CAT_ID":22826,"ELEMENT_SET_NO":999,"REV_AT_EPOCH":69271,"BSTAR":7.3924e-5,"MEAN_MOTION_DOT":1.51e-6,"MEAN_MOTION_DDOT":0},{"OBJECT_NAME":"RADIO ROSTO (RS15)","OBJECT_ID":"1994-085A","EPOCH":"2026-03-07T02:57:54.412416","MEAN_MOTION":11.27583928,"ECCENTRICITY":0.0152569,"INCLINATION":64.8142,"RA_OF_ASC_NODE":108.2839,"ARG_OF_PERICENTER":22.5115,"MEAN_ANOMALY":338.2411,"EPHEMERIS_TYPE":0,"CLASSIFICATION_TYPE":"U","NORAD_CAT_ID":23439,"ELEMENT_SET_NO":999,"REV_AT_EPOCH":28439,"BSTAR":0.00028355,"MEAN_MOTION_DOT":-3.2e-7,"MEAN_MOTION_DDOT":0},{"OBJECT_NAME":"JAS-2 (FO-29)","OBJECT_ID":"1996-046B","EPOCH":"2026-03-07T03:11:32.989344","MEAN_MOTION":13.53268552,"ECCENTRICITY":0.0349931,"INCLINATION":98.5383,"RA_OF_ASC_NODE":288.8984,"ARG_OF_PERICENTER":1.4004,"MEAN_ANOMALY":358.8036,"EPHEMERIS_TYPE":0,"CLASSIFICATION_TYPE":"U","NORAD_CAT_ID":24278,"ELEMENT_SET_NO":999,"REV_AT_EPOCH":45936,"BSTAR":1.5966e-5,"MEAN_MOTION_DOT":-2.0e-7,"MEAN_MOTION_DDOT":0},{"OBJECT_NAME":"TECHSAT 1B (GO-32)","OBJECT_ID":"1998-043D","EPOCH":"2026-03-06T22:19:39.120960","MEAN_MOTION":14.24405146,"ECCENTRICITY":0.0001986,"INCLINATION":99.0026,"RA_OF_ASC_NODE":56.1354,"ARG_OF_PERICENTER":123.9868,"MEAN_ANOMALY":236.1498,"EPHEMERIS_TYPE":0,"CLASSIFICATION_TYPE":"U","NORAD_CAT_ID":25397,"ELEMENT_SET_NO":999,"REV_AT_EPOCH":43677,"BSTAR":6.4601e-5,"MEAN_MOTION_DOT":1.03e-6,"MEAN_MOTION_DDOT":0},{"OBJECT_NAME":"ISS (ZARYA)","OBJECT_ID":"1998-067A","EPOCH":"2026-03-06T20:49:01.409088","MEAN_MOTION":15.48482048,"ECCENTRICITY":0.0008109,"INCLINATION":51.6318,"RA_OF_ASC_NODE":86.3097,"ARG_OF_PERICENTER":164.5613,"MEAN_ANOMALY":195.5624,"EPHEMERIS_TYPE":0,"CLASSIFICATION_TYPE":"U","NORAD_CAT_ID":25544,"ELEMENT_SET_NO":999,"REV_AT_EPOCH":55589,"BSTAR":0.00016627,"MEAN_MOTION_DOT":8.564e-5,"MEAN_MOTION_DDOT":0},{"OBJECT_NAME":"PCSAT (NO-44)","OBJECT_ID":"2001-043C","EPOCH":"2026-03-07T04:24:17.942400","MEAN_MOTION":14.31910626,"ECCENTRICITY":0.0007005,"INCLINATION":67.0508,"RA_OF_ASC_NODE":148.0942,"ARG_OF_PERICENTER":265.2738,"MEAN_ANOMALY":94.7564,"EPHEMERIS_TYPE":0,"CLASSIFICATION_TYPE":"U","NORAD_CAT_ID":26931,"ELEMENT_SET_NO":999,"REV_AT_EPOCH":27584,"BSTAR":0.00010989,"MEAN_MOTION_DOT":2.12e-6,"MEAN_MOTION_DDOT":0},{"OBJECT_NAME":"SAUDISAT 1C (SO-50)","OBJECT_ID":"2002-058C","EPOCH":"2026-03-07T04:32:45.881088","MEAN_MOTION":14.82770448,"ECCENTRICITY":0.0075199,"INCLINATION":64.552,"RA_OF_ASC_NODE":84.5051,"ARG_OF_PERICENTER":281.1523,"MEAN_ANOMALY":78.1135,"EPHEMERIS_TYPE":0,"CLASSIFICATION_TYPE":"U","NORAD_CAT_ID":27607,"ELEMENT_SET_NO":999,"REV_AT_EPOCH":24933,"BSTAR":0.00026196,"MEAN_MOTION_DOT":2.074e-5,"MEAN_MOTION_DDOT":0},{"OBJECT_NAME":"CUTE-1 (CO-55)","OBJECT_ID":"2003-031E","EPOCH":"2026-03-06T23:08:53.575872","MEAN_MOTION":14.24263294,"ECCENTRICITY":0.0010585,"INCLINATION":98.678,"RA_OF_ASC_NODE":75.7971,"ARG_OF_PERICENTER":119.5034,"MEAN_ANOMALY":240.7202,"EPHEMERIS_TYPE":0,"CLASSIFICATION_TYPE":"U","NORAD_CAT_ID":27844,"ELEMENT_SET_NO":999,"REV_AT_EPOCH":17712,"BSTAR":0.00020017,"MEAN_MOTION_DOT":4.18e-6,"MEAN_MOTION_DDOT":0},{"OBJECT_NAME":"CUBESAT XI-IV (CO-57)","OBJECT_ID":"2003-031J","EPOCH":"2026-03-06T23:20:06.708768","MEAN_MOTION":14.23558791,"ECCENTRICITY":0.001027,"INCLINATION":98.6809,"RA_OF_ASC_NODE":75.5995,"ARG_OF_PERICENTER":135.9414,"MEAN_ANOMALY":224.2584,"EPHEMERIS_TYPE":0,"CLASSIFICATION_TYPE":"U","NORAD_CAT_ID":27848,"ELEMENT_SET_NO":999,"REV_AT_EPOCH":17683,"BSTAR":0.00016835,"MEAN_MOTION_DOT":3.4e-6,"MEAN_MOTION_DDOT":0},{"OBJECT_NAME":"MOZHAETS 4 (RS22)","OBJECT_ID":"2003-042A","EPOCH":"2026-03-07T05:13:59.966688","MEAN_MOTION":14.73244933,"ECCENTRICITY":0.0010383,"INCLINATION":98.3432,"RA_OF_ASC_NODE":247.7103,"ARG_OF_PERICENTER":228.6467,"MEAN_ANOMALY":246.648,"EPHEMERIS_TYPE":0,"CLASSIFICATION_TYPE":"U","NORAD_CAT_ID":27939,"ELEMENT_SET_NO":999,"REV_AT_EPOCH":20053,"BSTAR":0.00025104,"MEAN_MOTION_DOT":1.569e-5,"MEAN_MOTION_DDOT":0},{"OBJECT_NAME":"CUBESAT XI-V","OBJECT_ID":"2005-043F","EPOCH":"2026-03-06T09:15:30.084768","MEAN_MOTION":14.72302296,"ECCENTRICITY":0.00145559,"INCLINATION":98.2825,"RA_OF_ASC_NODE":218.9473,"ARG_OF_PERICENTER":167.7954,"MEAN_ANOMALY":192.3608,"EPHEMERIS_TYPE":0,"CLASSIFICATION_TYPE":"U","NORAD_CAT_ID":28895,"ELEMENT_SET_NO":999,"REV_AT_EPOCH":8662,"BSTAR":0.00045496352,"MEAN_MOTION_DOT":2.828e-5,"MEAN_MOTION_DDOT":0}]
